[{"OBJECT_NAME":"BRO-10","OBJECT_ID":"2023-174CD","EPOCH":"2026-03-09T23:34:33.500352","MEAN_MOTION":15.73235012,"ECCENTRICITY":0.00030107,"INCLINATION":97.3656,"RA_OF_ASC_NODE":162.3972,"ARG_OF_PERICENTER":146.5418,"MEAN_ANOMALY":213.6037,"EPHEMERIS_TYPE":0,"CLASSIFICATION_TYPE":"U","NORAD_CAT_ID":58331,"ELEMENT_SET_NO":999,"REV_AT_EPOCH":13076,"BSTAR":0.0013973225,"MEAN_MOTION_DOT":0.00196052,"MEAN_MOTION_DDOT":0},{"OBJECT_NAME":"STARLINK-11733 [DTC]","OBJECT_ID":"2025-107J","EPOCH":"2026-03-09T18:49:56.157600","MEAN_MOTION":15.7086041,"ECCENTRICITY":1.084e-5,"INCLINATION":42.999,"RA_OF_ASC_NODE":97.6008,"ARG_OF_PERICENTER":58.976,"MEAN_ANOMALY":301.1118,"EPHEMERIS_TYPE":0,"CLASSIFICATION_TYPE":"U","NORAD_CAT_ID":64072,"ELEMENT_SET_NO":999,"REV_AT_EPOCH":4731,"BSTAR":0.0016876976,"MEAN_MOTION_DOT":0.00222194,"MEAN_MOTION_DDOT":0}]
